start=new Date('2023-06-12T00:00:00.000Z').valueOf();
sats=[{"PERIOD":"95.438","MEAN_MOTION":"15.08830745","ARG_OF_PERICENTER":"85.0670","BSTAR":"0.00010772000000","EPHEMERIS_TYPE":"0","EPOCH":"2023-06-11T20:04:22.318752","REF_FRAME":"TEME","OBJECT_TYPE":"PAYLOAD","FILE":"3930737","MEAN_ELEMENT_THEORY":"SGP4","RCS_SIZE":"LARGE","TLE_LINE2":"2 51123  53.2174 106.6113 0001356  85.0670 275.0477 15.08830745 77631","OBJECT_NAME":"STARLINK-3392","GP_ID":"233727005","MEAN_MOTION_DDOT":"0.0000000000000","OBJECT_ID":"2022-005V","CENTER_NAME":"EARTH","NORAD_CAT_ID":"51123","LAUNCH_DATE":"2022-01-19","PERIAPSIS":"538.836","RA_OF_ASC_NODE":"106.6113","MEAN_ANOMALY":"275.0477","ECCENTRICITY":"0.00013560","MEAN_MOTION_DOT":"0.00001426","SITE":"AFETR","REV_AT_EPOCH":"7763","TIME_SYSTEM":"UTC","DECAY_DATE":null,"SEMIMAJOR_AXIS":"6917.909","CLASSIFICATION_TYPE":"U","INCLINATION":"53.2174","ELEMENT_SET_NO":"999","TLE_LINE1":"1 51123U 22005V   23162.83636943  .00001426  00000-0  10772-3 0  9990","COUNTRY_CODE":"US","APOAPSIS":"540.712"},{"COUNTRY_CODE":"US","ELEMENT_SET_NO":"999","TLE_LINE1":"1 51124U 22005W   23162.61464091  .00000295  00000-0  36643-4 0  9999","APOAPSIS":"540.631","DECAY_DATE":null,"INCLINATION":"53.2163","CLASSIFICATION_TYPE":"U","SEMIMAJOR_AXIS":"6917.883","TIME_SYSTEM":"UTC","REV_AT_EPOCH":"7746","SITE":"AFETR","ECCENTRICITY":"0.00012770","MEAN_MOTION_DOT":"0.00000295","PERIAPSIS":"538.864","MEAN_ANOMALY":"271.8794","RA_OF_ASC_NODE":"117.6080","NORAD_CAT_ID":"51124","LAUNCH_DATE":"2022-01-19","MEAN_MOTION_DDOT":"0.0000000000000","CENTER_NAME":"EARTH","OBJECT_ID":"2022-005W","OBJECT_NAME":"STARLINK-3389","TLE_LINE2":"2 51124  53.2163 117.6080 0001277  88.2345 271.8794 15.08839302 77466","GP_ID":"233727753","RCS_SIZE":"LARGE","REF_FRAME":"TEME","MEAN_ELEMENT_THEORY":"SGP4","FILE":"3930737","OBJECT_TYPE":"PAYLOAD","EPHEMERIS_TYPE":"0","EPOCH":"2023-06-11T14:45:04.974624","BSTAR":"0.00003664300000","ARG_OF_PERICENTER":"88.2345","MEAN_MOTION":"15.08839302","PERIOD":"95.438"},{"GP_ID":"233727502","TLE_LINE2":"2 51125  53.2172 116.4733 0001274  85.6000 274.5137 15.08841844 77482","OBJECT_NAME":"STARLINK-3387","RCS_SIZE":"LARGE","MEAN_ELEMENT_THEORY":"SGP4","FILE":"3930737","OBJECT_TYPE":"PAYLOAD","REF_FRAME":"TEME","EPOCH":"2023-06-11T20:52:06.535776","EPHEMERIS_TYPE":"0","BSTAR":"0.00007226400000","ARG_OF_PERICENTER":"85.6000","MEAN_MOTION":"15.08841844","PERIOD":"95.437","APOAPSIS":"540.621","COUNTRY_CODE":"US","TLE_LINE1":"1 51125U 22005X   23162.86952009  .00000862  00000-0  72264-4 0  9997","ELEMENT_SET_NO":"999","INCLINATION":"53.2172","SEMIMAJOR_AXIS":"6917.875","CLASSIFICATION_TYPE":"U","DECAY_DATE":null,"TIME_SYSTEM":"UTC","REV_AT_EPOCH":"7748","SITE":"AFETR","MEAN_MOTION_DOT":"0.00000862","ECCENTRICITY":"0.00012740","MEAN_ANOMALY":"274.5137","RA_OF_ASC_NODE":"116.4733","PERIAPSIS":"538.858","LAUNCH_DATE":"2022-01-19","NORAD_CAT_ID":"51125","CENTER_NAME":"EARTH","OBJECT_ID":"2022-005X","MEAN_MOTION_DDOT":"0.0000000000000"},{"PERIAPSIS":"538.778","RA_OF_ASC_NODE":"116.4420","MEAN_ANOMALY":"267.1671","ECCENTRICITY":"0.00014090","MEAN_MOTION_DOT":"0.00000686","MEAN_MOTION_DDOT":"0.0000000000000","OBJECT_ID":"2022-005Y","CENTER_NAME":"EARTH","NORAD_CAT_ID":"51126","LAUNCH_DATE":"2022-01-19","DECAY_DATE":null,"CLASSIFICATION_TYPE":"U","SEMIMAJOR_AXIS":"6917.888","INCLINATION":"53.2156","ELEMENT_SET_NO":"999","TLE_LINE1":"1 51126U 22005Y   23162.87687880  .00000686  00000-0  61188-4 0  9998","COUNTRY_CODE":"US","APOAPSIS":"540.728","SITE":"AFETR","REV_AT_EPOCH":"7750","TIME_SYSTEM":"UTC","ARG_OF_PERICENTER":"92.9482","BSTAR":"0.00006118800000","PERIOD":"95.438","MEAN_MOTION":"15.08837476","RCS_SIZE":"LARGE","TLE_LINE2":"2 51126  53.2156 116.4420 0001409  92.9482 267.1671 15.08837476 77503","OBJECT_NAME":"STARLINK-3386","GP_ID":"233726755","EPHEMERIS_TYPE":"0","EPOCH":"2023-06-11T21:02:42.328320","REF_FRAME":"TEME","OBJECT_TYPE":"PAYLOAD","FILE":"3930737","MEAN_ELEMENT_THEORY":"SGP4"},{"LAUNCH_DATE":"2022-01-19","NORAD_CAT_ID":"51127","CENTER_NAME":"EARTH","OBJECT_ID":"2022-005Z","MEAN_MOTION_DDOT":"0.0000000000000","MEAN_MOTION_DOT":"0.00001054","ECCENTRICITY":"0.00012960","MEAN_ANOMALY":"275.1478","RA_OF_ASC_NODE":"117.6466","PERIAPSIS":"538.847","TIME_SYSTEM":"UTC","REV_AT_EPOCH":"7745","SITE":"AFETR","APOAPSIS":"540.640","COUNTRY_CODE":"US","ELEMENT_SET_NO":"999","TLE_LINE1":"1 51127U 22005Z   23162.60823988  .00001054  00000-0  84291-4 0  9991","INCLINATION":"53.2165","SEMIMAJOR_AXIS":"6917.878","CLASSIFICATION_TYPE":"U","DECAY_DATE":null,"MEAN_MOTION":"15.08840719","PERIOD":"95.438","BSTAR":"0.00008429100000","ARG_OF_PERICENTER":"84.9662","MEAN_ELEMENT_THEORY":"SGP4","FILE":"3930737","OBJECT_TYPE":"PAYLOAD","REF_FRAME":"TEME","EPOCH":"2023-06-11T14:35:51.925632","EPHEMERIS_TYPE":"0","GP_ID":"233726505","TLE_LINE2":"2 51127  53.2165 117.6466 0001296  84.9662 275.1478 15.08840719 77454","OBJECT_NAME":"STARLINK-3370","RCS_SIZE":"LARGE"},{"RCS_SIZE":"LARGE","TLE_LINE2":"2 51128  53.2169 117.7248 0001061  92.5897 267.5216 15.08838511 78568","OBJECT_NAME":"STARLINK-3400","GP_ID":"233701226","EPHEMERIS_TYPE":"0","EPOCH":"2023-06-11T14:07:59.509344","REF_FRAME":"TEME","MEAN_ELEMENT_THEORY":"SGP4","FILE":"3930641","OBJECT_TYPE":"PAYLOAD","BSTAR":"0.00005397700000","ARG_OF_PERICENTER":"92.5897","PERIOD":"95.438","MEAN_MOTION":"15.08838511","DECAY_DATE":null,"INCLINATION":"53.2169","CLASSIFICATION_TYPE":"U","SEMIMAJOR_AXIS":"6917.885","COUNTRY_CODE":"US","ELEMENT_SET_NO":"999","TLE_LINE1":"1 51128U 22005AA  23162.58888321  .00000571  00000-0  53977-4 0  9991","APOAPSIS":"540.484","REV_AT_EPOCH":"7856","SITE":"AFETR","TIME_SYSTEM":"UTC","PERIAPSIS":"539.016","MEAN_ANOMALY":"267.5216","RA_OF_ASC_NODE":"117.7248","ECCENTRICITY":"0.00010610","MEAN_MOTION_DOT":"0.00000571","MEAN_MOTION_DDOT":"0.0000000000000","CENTER_NAME":"EARTH","OBJECT_ID":"2022-005AA","NORAD_CAT_ID":"51128","LAUNCH_DATE":"2022-01-19"},{"PERIOD":"95.438","MEAN_MOTION":"15.08840243","BSTAR":"0.00005449600000","ARG_OF_PERICENTER":"96.6852","EPHEMERIS_TYPE":"0","EPOCH":"2023-06-11T14:46:27.802848","REF_FRAME":"TEME","FILE":"3930737","MEAN_ELEMENT_THEORY":"SGP4","OBJECT_TYPE":"PAYLOAD","RCS_SIZE":"LARGE","TLE_LINE2":"2 51129  53.2161 117.6044 0001652  96.6852 263.4328 15.08840243 77457","OBJECT_NAME":"STARLINK-3396","GP_ID":"233728003","MEAN_MOTION_DDOT":"0.0000000000000","CENTER_NAME":"EARTH","OBJECT_ID":"2022-005AB","NORAD_CAT_ID":"51129","LAUNCH_DATE":"2022-01-19","PERIAPSIS":"538.602","MEAN_ANOMALY":"263.4328","RA_OF_ASC_NODE":"117.6044","ECCENTRICITY":"0.00016520","MEAN_MOTION_DOT":"0.00000579","REV_AT_EPOCH":"7745","SITE":"AFETR","TIME_SYSTEM":"UTC","DECAY_DATE":null,"INCLINATION":"53.2161","CLASSIFICATION_TYPE":"U","SEMIMAJOR_AXIS":"6917.880","COUNTRY_CODE":"US","ELEMENT_SET_NO":"999","TLE_LINE1":"1 51129U 22005AB  23162.61559957  .00000579  00000-0  54496-4 0  9991","APOAPSIS":"540.887"},{"FILE":"3930737","MEAN_ELEMENT_THEORY":"SGP4","OBJECT_TYPE":"PAYLOAD","REF_FRAME":"TEME","EPOCH":"2023-06-11T20:45:25.994016","EPHEMERIS_TYPE":"0","GP_ID":"233726255","TLE_LINE2":"2 51130  53.2172 116.4825 0001355  91.8518 268.2629 15.08841996 77487","OBJECT_NAME":"STARLINK-3395","RCS_SIZE":"LARGE","MEAN_MOTION":"15.08841996","PERIOD":"95.437","BSTAR":"0.00003757400000","ARG_OF_PERICENTER":"91.8518","TIME_SYSTEM":"UTC","REV_AT_EPOCH":"7748","SITE":"AFETR","APOAPSIS":"540.677","COUNTRY_CODE":"US","ELEMENT_SET_NO":"999","TLE_LINE1":"1 51130U 22005AC  23162.86488419  .00000310  00000-0  37574-4 0  9995","INCLINATION":"53.2172","CLASSIFICATION_TYPE":"U","SEMIMAJOR_AXIS":"6917.874","DECAY_DATE":null,"LAUNCH_DATE":"2022-01-19","NORAD_CAT_ID":"51130","CENTER_NAME":"EARTH","OBJECT_ID":"2022-005AC","MEAN_MOTION_DDOT":"0.0000000000000","MEAN_MOTION_DOT":"0.00000310","ECCENTRICITY":"0.00013550","MEAN_ANOMALY":"268.2629","RA_OF_ASC_NODE":"116.4825","PERIAPSIS":"538.802"},{"MEAN_MOTION":"15.08839626","PERIOD":"95.438","ARG_OF_PERICENTER":"91.5867","BSTAR":"0.00002709000000","OBJECT_TYPE":"PAYLOAD","MEAN_ELEMENT_THEORY":"SGP4","FILE":"3930529","REF_FRAME":"TEME","EPOCH":"2023-06-11T14:13:17.387904","EPHEMERIS_TYPE":"0","GP_ID":"233694608","TLE_LINE2":"2 51131  53.2172 117.7049 0001184  91.5867 268.5260 15.08839626 77441","OBJECT_NAME":"STARLINK-3388","RCS_SIZE":"LARGE","LAUNCH_DATE":"2022-01-19","NORAD_CAT_ID":"51131","OBJECT_ID":"2022-005AD","CENTER_NAME":"EARTH","MEAN_MOTION_DDOT":"0.0000000000000","MEAN_MOTION_DOT":"0.00000143","ECCENTRICITY":"0.00011840","RA_OF_ASC_NODE":"117.7049","MEAN_ANOMALY":"268.5260","PERIAPSIS":"538.927","TIME_SYSTEM":"UTC","SITE":"AFETR","REV_AT_EPOCH":"7744","APOAPSIS":"540.566","ELEMENT_SET_NO":"999","TLE_LINE1":"1 51131U 22005AD  23162.59256236  .00000143  00000-0  27090-4 0  9992","COUNTRY_CODE":"US","SEMIMAJOR_AXIS":"6917.882","CLASSIFICATION_TYPE":"U","INCLINATION":"53.2172","DECAY_DATE":null},{"SITE":"AFETR","REV_AT_EPOCH":"7744","TIME_SYSTEM":"UTC","DECAY_DATE":null,"CLASSIFICATION_TYPE":"U","SEMIMAJOR_AXIS":"6917.862","INCLINATION":"53.2174","TLE_LINE1":"1 51132U 22005AE  23162.59624657  .00000689  00000-0  61340-4 0  9990","ELEMENT_SET_NO":"999","COUNTRY_CODE":"US","APOAPSIS":"540.515","MEAN_MOTION_DDOT":"0.0000000000000","OBJECT_ID":"2022-005AE","CENTER_NAME":"EARTH","NORAD_CAT_ID":"51132","LAUNCH_DATE":"2022-01-19","PERIAPSIS":"538.939","RA_OF_ASC_NODE":"117.6869","MEAN_ANOMALY":"263.6302","ECCENTRICITY":"0.00011390","MEAN_MOTION_DOT":"0.00000689","EPHEMERIS_TYPE":"0","EPOCH":"2023-06-11T14:18:35.703648","REF_FRAME":"TEME","OBJECT_TYPE":"PAYLOAD","MEAN_ELEMENT_THEORY":"SGP4","FILE":"3930529","RCS_SIZE":"LARGE","OBJECT_NAME":"STARLINK-3393","TLE_LINE2":"2 51132  53.2174 117.6869 0001139  96.4820 263.6302 15.08846044 77441","GP_ID":"233695357","PERIOD":"95.437","MEAN_MOTION":"15.08846044","ARG_OF_PERICENTER":"96.4820","BSTAR":"0.00006134000000"}];
